GLOBALSTAR M057         
1 25943U 99058A   24324.46574892 -.00000065  00000+0  25101-3 0  9997
2 25943  51.9977 223.3828 0002211 332.8693  27.2040 12.24802875141236
GLOBALSTAR M059         
1 25944U 99058B   24324.51529080 -.00000038  00000+0  59253-3 0  9998
2 25944  52.0037  54.3964 0000668 143.7585 277.1348 11.99969951548870
GLOBALSTAR M031         
1 25946U 99058D   24324.58464782 -.00000006  00000+0  85871-3 0  9994
2 25946  51.9980 326.4312 0001541 104.8300  51.6431 12.16022794139049
GLOBALSTAR M039         
1 25961U 99062A   24324.57373354 -.00000056  00000+0  26849-3 0  9994
2 25961  51.9827 187.1515 0001629 234.6464 125.4250 12.62311559153746
GLOBALSTAR M029         
1 25963U 99062C   24324.45220615 -.00000052  00000+0  41884-3 0  9996
2 25963  51.9810 302.7868 0002926  61.5876 108.4784 11.99887143143941
GLOBALSTAR M061         
1 25964U 99062D   24324.58559811 -.00000092  00000+0 -18561-3 0  9995
2 25964  51.9825  17.4812 0005699 289.6194 179.2256 11.76767834 96501
